[
    {
        "Altitude(m)": 604234.6025813308,
        "Argument of Periapsis(deg)": 0.0,
        "Eccentricity": 0.0,
        "Inclination(deg)": 60.0,
        "Latitude(deg)": 14.117197850410337,
        "Longitude(deg)": -8.27269603577635,
        "Mean Anomaly(deg)": -196.36359999999996,
        "RAAN(deg)": 280.0,
        "Satellite Name": "Test1 1242",
        "Satellite Number": 1242,
        "Semi-Major Axis(m)": 6980739.136638005,
        "Time(s)": 0
    },
    {
        "Altitude(m)": 604223.431462395,
        "Argument of Periapsis(deg)": 0.00010418945913296404,
        "Eccentricity": 0.0,
        "Inclination(deg)": 60.0,
        "Latitude(deg)": 13.582334688235472,
        "Longitude(deg)": -7.9857859846231545,
        "Mean Anomaly(deg)": -195.74349385453812,
        "RAAN(deg)": 279.99957995086027,
        "Satellite Name": "Test1 1242",
        "Satellite Number": 1242,
        "Semi-Major Axis(m)": 6980739.136638005,
        "Time(s)": 10
    }
]